GLOBALSTAR M084 [+]     
1 38040U 11080A   24033.30591625 -.00000093  00000+0  58431-4 0  9995
2 38040  52.0009 133.3390 0000847  93.2545 301.3106 12.62270516559412
GLOBALSTAR M080 [+]     
1 38041U 11080B   24033.70024035 -.00000088  00000+0  86858-4 0  9994
2 38041  52.0061 133.5703 0000753  80.6373  66.1590 12.62268724559585
GLOBALSTAR M082 [+]     
1 38042U 11080C   24033.56159943 -.00000091  00000+0  71948-4 0  9994
2 38042  52.0077  89.3858 0001061 149.2160  27.9245 12.62265662560279
GLOBALSTAR M092 [+]     
1 38043U 11080D   24033.59353436 -.00000080  00000+0  13427-3 0  9996
2 38043  52.0068 179.6394 0001137  94.3385 346.0638 12.62276171558737
GLOBALSTAR M090 [+]     
1 38044U 11080E   24033.32890972 -.00000096  00000+0  45546-4 0  9994
2 38044  51.9885  84.5461 0000722 146.0321 294.0812 12.62265755560360
GLOBALSTAR M086 [+]     
1 38045U 11080F   24033.52855750 -.00000097  00000+0  37313-4 0  9996
2 38045  51.9899  84.4523 0000472 271.9786 235.0482 12.62266903560330
GLOBALSTAR M097 [+]     
1 39072U 13005A   24033.83915974 -.00000094  00000+0  57211-4 0  9991
2 39072  52.0076 357.5427 0000103  80.4325 279.6553 12.62260344507629
GLOBALSTAR M093 [+]     
1 39073U 13005B   24033.33754768 -.00000086  00000+0  96494-4 0  9996
2 39073  51.9842 353.1743 0000010 103.6144 256.4724 12.62260433507516
